{
    "links": {
        "self": "http://www.neowsapp.com/rest/v1/neo/3635072?api_key=iIulBulltgU6a56xZRHN4H3l9WmuAYTsLGpBGhQ2"
    },
    "id": "3635072",
    "neo_reference_id": "3635072",
    "name": "(2013 HL11)",
    "designation": "2013 HL11",
    "nasa_jpl_url": "http://ssd.jpl.nasa.gov/sbdb.cgi?sstr=3635072",
    "absolute_magnitude_h": 23.3,
    "estimated_diameter": {
        "kilometers": {
            "estimated_diameter_min": 0.058150704,
            "estimated_diameter_max": 0.130028927
        },
        "meters": {
            "estimated_diameter_min": 58.1507039646,
            "estimated_diameter_max": 130.0289270043
        },
        "miles": {
            "estimated_diameter_min": 0.0361331611,
            "estimated_diameter_max": 0.0807962044
        },
        "feet": {
            "estimated_diameter_min": 190.7831555951,
            "estimated_diameter_max": 426.6041048727
        }
    },
    "is_potentially_hazardous_asteroid": false,
    "close_approach_data": [
        {
            "close_approach_date": "2013-04-27",
            "close_approach_date_full": "2013-Apr-27 06:07",
            "epoch_date_close_approach": 1367042820000,
            "relative_velocity": {
                "kilometers_per_second": "17.2257388936",
                "kilometers_per_hour": "62012.6600170284",
                "miles_per_hour": "38532.2553311363"
            },
            "miss_distance": {
                "astronomical": "0.1616003131",
                "lunar": "62.8625217959",
                "kilometers": "24175062.631093097",
                "miles": "15021687.3540628586"
            },
            "orbiting_body": "Earth"
        },
        {
            "close_approach_date": "2013-10-06",
            "close_approach_date_full": "2013-Oct-06 08:01",
            "epoch_date_close_approach": 1381046460000,
            "relative_velocity": {
                "kilometers_per_second": "17.9929475076",
                "kilometers_per_hour": "64774.611027405",
                "miles_per_hour": "40248.4242797784"
            },
            "miss_distance": {
                "astronomical": "0.4189248336",
                "lunar": "162.9617602704",
                "kilometers": "62670262.796664432",
                "miles": "38941495.5607038816"
            },
            "orbiting_body": "Earth"
        },
        {
            "close_approach_date": "2017-01-25",
            "close_approach_date_full": "2017-Jan-25 19:21",
            "epoch_date_close_approach": 1485372060000,
            "relative_velocity": {
                "kilometers_per_second": "13.6130086387",
                "kilometers_per_hour": "49006.8310994939",
                "miles_per_hour": "30450.9390240161"
            },
            "miss_distance": {
                "astronomical": "0.0257452901",
                "lunar": "10.0149178489",
                "kilometers": "3851440.561492087",
                "miles": "2393174.1919493206"
            },
            "orbiting_body": "Mars"
        },
        {
            "close_approach_date": "2021-04-22",
            "close_approach_date_full": "2021-Apr-22 03:36",
            "epoch_date_close_approach": 1619062560000,
            "relative_velocity": {
                "kilometers_per_second": "21.1104686402",
                "kilometers_per_hour": "75997.6871048446",
                "miles_per_hour": "47222.0073013408"
            },
            "miss_distance": {
                "astronomical": "0.3337429827",
                "lunar": "129.8260202703",
                "kilometers": "49927239.339366849",
                "miles": "31023347.9537225562"
            },
            "orbiting_body": "Earth"
        },
        {
            "close_approach_date": "2021-10-12",
            "close_approach_date_full": "2021-Oct-12 16:12",
            "epoch_date_close_approach": 1634055120000,
            "relative_velocity": {
                "kilometers_per_second": "16.5540072333",
                "kilometers_per_hour": "59594.4260400499",
                "miles_per_hour": "37029.6587802744"
            },
            "miss_distance": {
                "astronomical": "0.3910963779",
                "lunar": "152.1364910031",
                "kilometers": "58507185.098555073",
                "miles": "36354679.0313750874"
            },
            "orbiting_body": "Earth"
        }
    ],
    "orbital_data": {
        "orbit_id": "8",
        "orbit_determination_date": "2017-04-06 08:46:03",
        "first_observation_date": "2013-04-17",
        "last_observation_date": "2013-05-07",
        "data_arc_in_days": 20,
        "observations_used": 30,
        "orbit_uncertainty": "8",
        "minimum_orbit_intersection": ".159793",
        "jupiter_tisserand_invariant": "4.659",
        "epoch_osculation": "2456401.5",
        "eccentricity": ".2277236833627192",
        "semi_major_axis": "1.361866317327542",
        "inclination": "32.67478842562199",
        "ascending_node_longitude": "31.97150488926322",
        "orbital_period": "580.4972209528945",
        "perihelion_distance": "1.051737103298092",
        "perihelion_argument": "244.6277791234585",
        "aphelion_distance": "1.671995531356991",
        "perihelion_time": "2456473.386150798339",
        "mean_anomaly": "315.419227942347",
        "mean_motion": ".6201580076629046",
        "equinox": "J2000",
        "orbit_class": {
            "orbit_class_type": "AMO",
            "orbit_class_description": "Near-Earth asteroid orbits similar to that of 1221 Amor",
            "orbit_class_range": "1.017 AU < q (perihelion) < 1.3 AU"
        }
    },
    "is_sentry_object": false
}